[{"COMMENT":"GENERATED VIA SPACETRACK.ORG API","ORIGINATOR":"18 SPCS","NORAD_CAT_ID":"43476","OBJECT_NAME":"GRACE-FO 1","OBJECT_TYPE":"PAYLOAD","CLASSIFICATION_TYPE":"U","INTLDES":"18047A","EPOCH":"2023-03-24 21:05:17","EPOCH_MICROSECONDS":"482848","MEAN_MOTION":"15.25567064","ECCENTRICITY":"0.0014573","INCLINATION":"88.9962","RA_OF_ASC_NODE":"0.5759","ARG_OF_PERICENTER":"13.1379","MEAN_ANOMALY":"347.0245","EPHEMERIS_TYPE":"0","ELEMENT_SET_NO":"999","REV_AT_EPOCH":"26914","BSTAR":"0.0002455","MEAN_MOTION_DOT":"0.00006273","MEAN_MOTION_DDOT":"0","FILE":"3869889","TLE_LINE0":"0 GRACE-FO 1","TLE_LINE1":"1 43476U 18047A   23083.87867457  .00006273  00000-0  24550-3 0  9999","TLE_LINE2":"2 43476  88.9962   0.5759 0014573  13.1379 347.0245 15.25567064269146","OBJECT_ID":"2018-047A","OBJECT_NUMBER":"43476","SEMIMAJOR_AXIS":"6867.220","PERIOD":"94.391","APOGEE":"499.093","PERIGEE":"479.078","DECAYED":"0"},{"COMMENT":"GENERATED VIA SPACETRACK.ORG API","ORIGINATOR":"18 SPCS","NORAD_CAT_ID":"43476","OBJECT_NAME":"GRACE-FO 1","OBJECT_TYPE":"PAYLOAD","CLASSIFICATION_TYPE":"U","INTLDES":"18047A","EPOCH":"2023-03-24 21:05:17","EPOCH_MICROSECONDS":"482848","MEAN_MOTION":"15.25567064","ECCENTRICITY":"0.0014573","INCLINATION":"88.9962","RA_OF_ASC_NODE":"0.5759","ARG_OF_PERICENTER":"13.1379","MEAN_ANOMALY":"347.0245","EPHEMERIS_TYPE":"0","ELEMENT_SET_NO":"999","REV_AT_EPOCH":"26914","BSTAR":"0.0002455","MEAN_MOTION_DOT":"0.00006273","MEAN_MOTION_DDOT":"0","FILE":"3870109","TLE_LINE0":"0 GRACE-FO 1","TLE_LINE1":"1 43476U 18047A   23083.87867457  .00006273  00000-0  24550-3 0  9999","TLE_LINE2":"2 43476  88.9962   0.5759 0014573  13.1379 347.0245 15.25567064269146","OBJECT_ID":"2018-047A","OBJECT_NUMBER":"43476","SEMIMAJOR_AXIS":"6867.220","PERIOD":"94.391","APOGEE":"499.093","PERIGEE":"479.078","DECAYED":"0"},{"COMMENT":"GENERATED VIA SPACETRACK.ORG API","ORIGINATOR":"18 SPCS","NORAD_CAT_ID":"43476","OBJECT_NAME":"GRACE-FO 1","OBJECT_TYPE":"PAYLOAD","CLASSIFICATION_TYPE":"U","INTLDES":"18047A","EPOCH":"2023-03-25 22:16:35","EPOCH_MICROSECONDS":"742144","MEAN_MOTION":"15.25579751","ECCENTRICITY":"0.0014342","INCLINATION":"88.9959","RA_OF_ASC_NODE":"0.4344","ARG_OF_PERICENTER":"9.2589","MEAN_ANOMALY":"350.8921","EPHEMERIS_TYPE":"0","ELEMENT_SET_NO":"999","REV_AT_EPOCH":"26930","BSTAR":"0.00022759","MEAN_MOTION_DOT":"0.00005819","MEAN_MOTION_DDOT":"0","FILE":"3871104","TLE_LINE0":"0 GRACE-FO 1","TLE_LINE1":"1 43476U 18047A   23084.92819146  .00005819  00000-0  22759-3 0  9992","TLE_LINE2":"2 43476  88.9959   0.4344 0014342   9.2589 350.8921 15.25579751269301","OBJECT_ID":"2018-047A","OBJECT_NUMBER":"43476","SEMIMAJOR_AXIS":"6867.182","PERIOD":"94.390","APOGEE":"498.896","PERIGEE":"479.198","DECAYED":"0"},{"COMMENT":"GENERATED VIA SPACETRACK.ORG API","ORIGINATOR":"18 SPCS","NORAD_CAT_ID":"43476","OBJECT_NAME":"GRACE-FO 1","OBJECT_TYPE":"PAYLOAD","CLASSIFICATION_TYPE":"U","INTLDES":"18047A","EPOCH":"2023-03-26 04:34:25","EPOCH_MICROSECONDS":"200480","MEAN_MOTION":"15.25582562","ECCENTRICITY":"0.0014274","INCLINATION":"88.9958","RA_OF_ASC_NODE":"0.3991","ARG_OF_PERICENTER":"8.3242","MEAN_ANOMALY":"351.8241","EPHEMERIS_TYPE":"0","ELEMENT_SET_NO":"999","REV_AT_EPOCH":"26934","BSTAR":"0.00021915","MEAN_MOTION_DOT":"0.00005604","MEAN_MOTION_DDOT":"0","FILE":"3871184","TLE_LINE0":"0 GRACE-FO 1","TLE_LINE1":"1 43476U 18047A   23085.19056945  .00005604  00000-0  21915-3 0  9997","TLE_LINE2":"2 43476  88.9958   0.3991 0014274   8.3242 351.8241 15.25582562269341","OBJECT_ID":"2018-047A","OBJECT_NUMBER":"43476","SEMIMAJOR_AXIS":"6867.174","PERIOD":"94.390","APOGEE":"498.841","PERIGEE":"479.236","DECAYED":"0"},{"COMMENT":"GENERATED VIA SPACETRACK.ORG API","ORIGINATOR":"18 SPCS","NORAD_CAT_ID":"43476","OBJECT_NAME":"GRACE-FO 1","OBJECT_TYPE":"PAYLOAD","CLASSIFICATION_TYPE":"U","INTLDES":"18047A","EPOCH":"2023-03-26 21:53:26","EPOCH_MICROSECONDS":"65536","MEAN_MOTION":"15.25589477","ECCENTRICITY":"0.0014119","INCLINATION":"88.9957","RA_OF_ASC_NODE":"0.3019","ARG_OF_PERICENTER":"5.6291","MEAN_ANOMALY":"354.5113","EPHEMERIS_TYPE":"0","ELEMENT_SET_NO":"999","REV_AT_EPOCH":"26945","BSTAR":"0.00020986","MEAN_MOTION_DOT":"0.00005369","MEAN_MOTION_DDOT":"0","FILE":"3871964","TLE_LINE0":"0 GRACE-FO 1","TLE_LINE1":"1 43476U 18047A   23085.91210724  .00005369  00000-0  20986-3 0  9999","TLE_LINE2":"2 43476  88.9957   0.3019 0014119   5.6291 354.5113 15.25589477269455","OBJECT_ID":"2018-047A","OBJECT_NUMBER":"43476","SEMIMAJOR_AXIS":"6867.153","PERIOD":"94.390","APOGEE":"498.714","PERIGEE":"479.322","DECAYED":"0"},{"COMMENT":"GENERATED VIA SPACETRACK.ORG API","ORIGINATOR":"18 SPCS","NORAD_CAT_ID":"43476","OBJECT_NAME":"GRACE-FO 1","OBJECT_TYPE":"PAYLOAD","CLASSIFICATION_TYPE":"U","INTLDES":"18047A","EPOCH":"2023-03-27 12:03:31","EPOCH_MICROSECONDS":"990176","MEAN_MOTION":"15.25594549","ECCENTRICITY":"0.0013984","INCLINATION":"88.9956","RA_OF_ASC_NODE":"0.2224","ARG_OF_PERICENTER":"3.3961","MEAN_ANOMALY":"356.738","EPHEMERIS_TYPE":"0","ELEMENT_SET_NO":"999","REV_AT_EPOCH":"26954","BSTAR":"0.00019481","MEAN_MOTION_DOT":"0.00004986","MEAN_MOTION_DDOT":"0","FILE":"3872353","TLE_LINE0":"0 GRACE-FO 1","TLE_LINE1":"1 43476U 18047A   23086.50245359  .00004986  00000-0  19481-3 0  9999","TLE_LINE2":"2 43476  88.9956   0.2224 0013984   3.3961 356.7380 15.25594549269545","OBJECT_ID":"2018-047A","OBJECT_NUMBER":"43476","SEMIMAJOR_AXIS":"6867.138","PERIOD":"94.389","APOGEE":"498.606","PERIGEE":"479.400","DECAYED":"0"},{"COMMENT":"GENERATED VIA SPACETRACK.ORG API","ORIGINATOR":"18 SPCS","NORAD_CAT_ID":"43476","OBJECT_NAME":"GRACE-FO 1","OBJECT_TYPE":"PAYLOAD","CLASSIFICATION_TYPE":"U","INTLDES":"18047A","EPOCH":"2023-03-27 13:37:59","EPOCH_MICROSECONDS":"304864","MEAN_MOTION":"15.25595215","ECCENTRICITY":"0.0013968","INCLINATION":"88.9956","RA_OF_ASC_NODE":"0.2135","ARG_OF_PERICENTER":"3.1421","MEAN_ANOMALY":"356.9913","EPHEMERIS_TYPE":"0","ELEMENT_SET_NO":"999","REV_AT_EPOCH":"26955","BSTAR":"0.00019478","MEAN_MOTION_DOT":"0.00004985","MEAN_MOTION_DDOT":"0","FILE":"3872569","TLE_LINE0":"0 GRACE-FO 1","TLE_LINE1":"1 43476U 18047A   23086.56804751  .00004985  00000-0  19478-3 0  9997","TLE_LINE2":"2 43476  88.9956   0.2135 0013968   3.1421 356.9913 15.25595215269553","OBJECT_ID":"2018-047A","OBJECT_NUMBER":"43476","SEMIMAJOR_AXIS":"6867.136","PERIOD":"94.389","APOGEE":"498.593","PERIGEE":"479.409","DECAYED":"0"},{"COMMENT":"GENERATED VIA SPACETRACK.ORG API","ORIGINATOR":"18 SPCS","NORAD_CAT_ID":"43476","OBJECT_NAME":"GRACE-FO 1","OBJECT_TYPE":"PAYLOAD","CLASSIFICATION_TYPE":"U","INTLDES":"18047A","EPOCH":"2023-03-27 21:30:15","EPOCH_MICROSECONDS":"831648","MEAN_MOTION":"15.25598815","ECCENTRICITY":"0.0013891","INCLINATION":"88.9955","RA_OF_ASC_NODE":"0.1693","ARG_OF_PERICENTER":"1.8872","MEAN_ANOMALY":"358.2426","EPHEMERIS_TYPE":"0","ELEMENT_SET_NO":"999","REV_AT_EPOCH":"26960","BSTAR":"0.00019945","MEAN_MOTION_DOT":"0.00005105","MEAN_MOTION_DDOT":"0","FILE":"3872915","TLE_LINE0":"0 GRACE-FO 1","TLE_LINE1":"1 43476U 18047A   23086.89601657  .00005105  00000-0  19945-3 0  9997","TLE_LINE2":"2 43476  88.9955   0.1693 0013891   1.8872 358.2426 15.25598815269609","OBJECT_ID":"2018-047A","OBJECT_NUMBER":"43476","SEMIMAJOR_AXIS":"6867.125","PERIOD":"94.389","APOGEE":"498.529","PERIGEE":"479.451","DECAYED":"0"},{"COMMENT":"GENERATED VIA SPACETRACK.ORG API","ORIGINATOR":"18 SPCS","NORAD_CAT_ID":"43476","OBJECT_NAME":"GRACE-FO 1","OBJECT_TYPE":"PAYLOAD","CLASSIFICATION_TYPE":"U","INTLDES":"18047A","EPOCH":"2023-03-28 13:14:48","EPOCH_MICROSECONDS":"712416","MEAN_MOTION":"15.25605076","ECCENTRICITY":"0.0013769","INCLINATION":"88.9954","RA_OF_ASC_NODE":"0.0808","ARG_OF_PERICENTER":"359.3628","MEAN_ANOMALY":"0.7601","EPHEMERIS_TYPE":"0","ELEMENT_SET_NO":"999","REV_AT_EPOCH":"26970","BSTAR":"0.00019513","MEAN_MOTION_DOT":"0.00004995","MEAN_MOTION_DDOT":"0","FILE":"3873300","TLE_LINE0":"0 GRACE-FO 1","TLE_LINE1":"1 43476U 18047A   23087.55195269  .00004995  00000-0  19513-3 0  9995","TLE_LINE2":"2 43476  88.9954   0.0808 0013769 359.3628   0.7601 15.25605076269702","OBJECT_ID":"2018-047A","OBJECT_NUMBER":"43476","SEMIMAJOR_AXIS":"6867.106","PERIOD":"94.389","APOGEE":"498.426","PERIGEE":"479.516","DECAYED":"0"},{"COMMENT":"GENERATED VIA SPACETRACK.ORG API","ORIGINATOR":"18 SPCS","NORAD_CAT_ID":"43476","OBJECT_NAME":"GRACE-FO 1","OBJECT_TYPE":"PAYLOAD","CLASSIFICATION_TYPE":"U","INTLDES":"18047A","EPOCH":"2023-03-28 13:14:48","EPOCH_MICROSECONDS":"713280","MEAN_MOTION":"15.25604988","ECCENTRICITY":"0.0013765","INCLINATION":"88.9954","RA_OF_ASC_NODE":"0.0808","ARG_OF_PERICENTER":"359.3692","MEAN_ANOMALY":"0.7536","EPHEMERIS_TYPE":"0","ELEMENT_SET_NO":"999","REV_AT_EPOCH":"26970","BSTAR":"0.00019316","MEAN_MOTION_DOT":"0.00004945","MEAN_MOTION_DDOT":"0","FILE":"3873565","TLE_LINE0":"0 GRACE-FO 1","TLE_LINE1":"1 43476U 18047A   23087.55195270  .00004945  00000-0  19316-3 0  9993","TLE_LINE2":"2 43476  88.9954   0.0808 0013765 359.3692   0.7536 15.25604988269707","OBJECT_ID":"2018-047A","OBJECT_NUMBER":"43476","SEMIMAJOR_AXIS":"6867.106","PERIOD":"94.389","APOGEE":"498.424","PERIGEE":"479.519","DECAYED":"0"}]